CAS-2T & KS-1Q          
1 41847U 16066G   20282.54728559  .00000055  00000-0  19525-4 0  9998
2 41847  98.6414 334.1307 0364503 251.8182 104.3008 14.38096481205677
NAYIF-1 (EO-88)         
1 42017U 17008BX  20282.41848191  .00001763  00000-0  69672-4 0  9991
2 42017  97.3492 348.2871 0004505 286.9361  73.1384 15.26814994202786
MAX VALIER SAT          
1 42778U 17036P   20282.63437824  .00000989  00000-0  45171-4 0  9994
2 42778  97.2928 333.0753 0011674 352.4072   7.6986 15.22815284182952
RADFXSAT (FOX-1B)       
1 43017U 17073E   20282.50910071  .00000927  00000-0  76489-4 0  9996
2 43017  97.7149 190.3470 0257705  42.1827 319.8901 14.79051097155878
FOX-1D (AO-92)          
1 43137U 18004AC  20282.20421744  .00001151  00000-0  49946-4 0  9993
2 43137  97.4360 352.5559 0009747  29.1432 331.0347 15.24338023152225
DIWATA-2B               
1 43678U 18084H   20282.64058193  .00000504  00000-0  55866-4 0  9992
2 43678  97.8965  41.1210 0010418 155.3472 204.8247 14.91660482105895
ES'HAIL 2               
1 43700U 18090A   20282.61820740  .00000146  00000-0  00000+0 0  9994
2 43700   0.0117 249.6008 0001936 334.7256  41.7590  1.00270855  7082
FOX-1CLIFF (AO-95)      
1 43770U 18099N   20282.15210503  .00000696  00000-0  68629-4 0  9995
2 43770  97.6962 351.5152 0014754 174.8775 185.2600 14.95058653100755
ITASAT 1                
1 43786U 18099AE  20282.25765280  .00000065  00000-0  11035-4 0  9999
2 43786  97.6975 352.1191 0015522 169.0375 191.1187 14.95385538100797
JY1SAT (JO-97)          
1 43803U 18099AX  20282.45911572  .00000207  00000-0  23802-4 0  9991
2 43803  97.6936 352.1102 0015528 168.5994 191.5582 14.95575785100825
PSAT2 (NO-104)          
1 44354U 19036R   20282.49714300  .00008724  00000-0  12281-3 0  9999
2 44354  28.5297 357.1179 0356561  80.1211 283.9434 15.05568670 70853
BRICSAT2 (NO-103)       
1 44355U 19036S   20282.49729456  .00016995  00000-0  22580-3 0  9990
2 44355  28.5292 341.4446 0327914 105.5657 258.1377 15.12880124 71027
JAISAT-1                
1 44419U 19038F   20282.45931177  .00001039  00000-0  62297-4 0  9997
2 44419  97.5521 242.8182 0023138 100.2826 260.1015 15.12960055 69684
DUCHIFAT-3              
1 44854U 19089C   20281.99294646  .00000440  00000-0  41879-4 0  9995
2 44854  36.9655 153.2320 0009450 258.2395 101.7298 14.99148347 45196
RS-44 & BREEZE-KM R/B   
1 44909U 19096E   20282.48840183  .00000012  00000-0  90763-5 0  9994
2 44909  82.5167 280.2028 0216721 322.4879  36.1264 12.79708412 36645
ORBITAL FACTORY 2 (OF-2)
1 45113U 19071C   20282.15691281  .00001751  00000-0  64190-4 0  9997
2 45113  51.6424 178.9591 0013597 103.0476 257.2025 15.33777954 38425
HUSKYSAT-1              
1 45119U 19071J   20282.18553968  .00002691  00000-0  91908-4 0  9996
2 45119  51.6420 178.4006 0012839  99.8640 260.3792 15.33963309 38423
